IRIDIUM 171             
1 43929U 19002H   23313.14664245  .00000672  00000+0  23268-3 0  9991
2 43929  86.4023  31.2352 0002217  94.8330 265.3119 14.34223796252644
IRIDIUM 170             
1 43930U 19002J   23312.75315529  .00002412  00000+0  37855-3 0  9998
2 43930  86.6145  31.2527 0002284  97.9753 262.1723 14.72258102259277
IRIDIUM 167             
1 43931U 19002K   23312.93100556  .00000249  00000+0  81816-4 0  9994
2 43931  86.4014  31.1386 0002199  97.1511 262.9935 14.34216962252612
IRIDIUM 181             
1 56726U 23068S   23313.05656480  .00000971  00000+0  28090-3 0  9999
2 56726  86.8621  74.0900 0003081 108.3389 251.8148 14.43581574 25236
IRIDIUM 177             
1 56727U 23068T   23313.03260856  .00003171  00000+0  41346-3 0  9990
2 56727  86.1987  60.3412 0002220  91.4257 268.7219 14.80265125 25666
IRIDIUM 174             
1 56728U 23068U   23312.82440075  .00003275  00000+0  42715-3 0  9996
2 56728  86.1993  60.5258 0001953  93.2707 266.8738 14.80268346 25636
IRIDIUM 178             
1 56729U 23068V   23312.81903603  .00003252  00000+0  42437-3 0  9993
2 56729  86.5780  67.5008 0001979  89.5250 270.6198 14.80246391 25633
IRIDIUM 179             
1 56730U 23068W   23312.81360678  .00003249  00000+0  42391-3 0  9999
2 56730  86.6787  68.8496 0002149  93.0081 267.1387 14.80255406 25638
